{
  "norad_id": 63926,
  "name": "STARLINK-34012",
  "history": [
    {
      "epoch": "2026-03-28T17:52:04.729152Z",
      "apogee_km": 574.0914236516701,
      "perigee_km": 569.8778429102758,
      "latitude_deg": 3.071509115001072e-05,
      "longitude_deg": 132.3537585752509,
      "height_km": 574.2493351491241,
      "semi_major_axis_km": 6950.121633280973,
      "eccentricity": 0.00030313,
      "inclination_deg": 70.001,
      "raan_deg": 226.534,
      "arg_perigee_deg": 274.4331,
      "mean_anomaly_deg": 85.6482,
      "mean_motion_rev_day": 14.98353043
    },
    {
      "epoch": "2026-03-29T01:52:45.050880Z",
      "apogee_km": 573.8697606430433,
      "perigee_km": 570.1236385789534,
      "latitude_deg": -2.1197363368911787e-05,
      "longitude_deg": 11.016324212988257,
      "height_km": 574.4254825848432,
      "semi_major_axis_km": 6950.1336996109985,
      "eccentricity": 0.0002695,
      "inclination_deg": 70.003,
      "raan_deg": 225.6936,
      "arg_perigee_deg": 269.9572,
      "mean_anomaly_deg": 90.1278,
      "mean_motion_rev_day": 14.98349141
    },
    {
      "epoch": "2026-03-30T01:54:45.698112Z",
      "apogee_km": 574.1094277233206,
      "perigee_km": 569.9523932926886,
      "latitude_deg": 4.456526718659846e-05,
      "longitude_deg": 7.000130464301903,
      "height_km": 574.3851909738369,
      "semi_major_axis_km": 6950.167910508005,
      "eccentricity": 0.00029906,
      "inclination_deg": 70.0014,
      "raan_deg": 223.1671,
      "arg_perigee_deg": 272.0198,
      "mean_anomaly_deg": 88.0619,
      "mean_motion_rev_day": 14.98338078
    },
    {
      "epoch": "2026-03-30T13:07:42.336192Z",
      "apogee_km": 573.9328595291545,
      "perigee_km": 570.1558529729145,
      "latitude_deg": 1.1422648397332086e-05,
      "longitude_deg": -162.87218677077067,
      "height_km": 574.6938382846755,
      "semi_major_axis_km": 6950.181356251034,
      "eccentricity": 0.00027172,
      "inclination_deg": 70.002,
      "raan_deg": 221.9914,
      "arg_perigee_deg": 263.2444,
      "mean_anomaly_deg": 96.8406,
      "mean_motion_rev_day": 14.9833373
    },
    {
      "epoch": "2026-03-30T19:32:14.872992Z",
      "apogee_km": 574.4042457560463,
      "perigee_km": 569.7400993845167,
      "latitude_deg": -5.2648569915511425e-05,
      "longitude_deg": 100.05271050898249,
      "height_km": 574.4651235262526,
      "semi_major_axis_km": 6950.209172570281,
      "eccentricity": 0.00033554,
      "inclination_deg": 70.0012,
      "raan_deg": 221.3151,
      "arg_perigee_deg": 270.8581,
      "mean_anomaly_deg": 89.2193,
      "mean_motion_rev_day": 14.98324735
    },
    {
      "epoch": "2026-03-31T17:58:19.560864Z",
      "apogee_km": 580.8597241946809,
      "perigee_km": 566.0083877906582,
      "latitude_deg": -5.331168546816908e-06,
      "longitude_deg": 120.25673836046639,
      "height_km": 573.6904290047688,
      "semi_major_axis_km": 6951.571055992669,
      "eccentricity": 0.0010682,
      "inclination_deg": 70.0025,
      "raan_deg": 218.96,
      "arg_perigee_deg": 287.0235,
      "mean_anomaly_deg": 72.9753,
      "mean_motion_rev_day": 14.97884451
    },
    {
      "epoch": "2026-04-01T14:47:52.562112Z",
      "apogee_km": 574.3271607717206,
      "perigee_km": 569.6719593038079,
      "latitude_deg": 3.1670906762685323e-05,
      "longitude_deg": 164.82506106752263,
      "height_km": 574.3197427382593,
      "semi_major_axis_km": 6950.136560037764,
      "eccentricity": 0.0003349,
      "inclination_deg": 70.0027,
      "raan_deg": 216.7711,
      "arg_perigee_deg": 272.6545,
      "mean_anomaly_deg": 87.4231,
      "mean_motion_rev_day": 14.98348216
    }
  ]
}